start=new Date('2023-02-23T00:00:00.000Z').valueOf();
sats=[{"BSTAR":"0.00155490000000","RA_OF_ASC_NODE":"343.4232","ECCENTRICITY":"0.00015920","APOAPSIS":"548.245","COUNTRY_CODE":"US","OBJECT_TYPE":"PAYLOAD","FILE":"3825529","TLE_LINE2":"2 45695  53.0554 343.4232 0001592  70.7686 289.3475 15.06423214151727","EPOCH":"2023-02-22T20:07:17.659776","TIME_SYSTEM":"UTC","ELEMENT_SET_NO":"999","MEAN_MOTION_DOT":"0.00022969","SITE":"AFETR","RCS_SIZE":"LARGE","PERIAPSIS":"546.040","MEAN_ANOMALY":"289.3475","DECAY_DATE":null,"MEAN_MOTION_DDOT":"0.0000000000000","MEAN_ELEMENT_THEORY":"SGP4","OBJECT_ID":"2020-035AQ","INCLINATION":"53.0554","ARG_OF_PERICENTER":"70.7686","TLE_LINE1":"1 45695U 20035AQ  23053.83839884  .00022969  00000-0  15549-2 0  9997","GP_ID":"226471606","CLASSIFICATION_TYPE":"U","SEMIMAJOR_AXIS":"6925.277","MEAN_MOTION":"15.06423214","CENTER_NAME":"EARTH","PERIOD":"95.591","OBJECT_NAME":"STARLINK-1420","EPHEMERIS_TYPE":"0","NORAD_CAT_ID":"45695","REV_AT_EPOCH":"15172","REF_FRAME":"TEME","LAUNCH_DATE":"2020-06-04"},{"BSTAR":"0.00203660000000","RA_OF_ASC_NODE":"6.0600","ECCENTRICITY":"0.00009760","APOAPSIS":"547.898","COUNTRY_CODE":"US","OBJECT_TYPE":"PAYLOAD","FILE":"3824148","EPOCH":"2023-02-22T06:02:05.773344","TLE_LINE2":"2 45696  53.0556   6.0600 0000976 104.9608 255.1489 15.06397081151346","TIME_SYSTEM":"UTC","SITE":"AFETR","RCS_SIZE":"LARGE","MEAN_MOTION_DOT":"0.00030182","ELEMENT_SET_NO":"999","MEAN_ANOMALY":"255.1489","PERIAPSIS":"546.547","DECAY_DATE":null,"MEAN_ELEMENT_THEORY":"SGP4","OBJECT_ID":"2020-035AR","MEAN_MOTION_DDOT":"0.0000000000000","INCLINATION":"53.0556","TLE_LINE1":"1 45696U 20035AR  23053.25145571  .00030182  00000-0  20366-2 0  9996","ARG_OF_PERICENTER":"104.9608","MEAN_MOTION":"15.06397081","GP_ID":"226418621","CLASSIFICATION_TYPE":"U","SEMIMAJOR_AXIS":"6925.358","CENTER_NAME":"EARTH","PERIOD":"95.592","OBJECT_NAME":"STARLINK-1422","NORAD_CAT_ID":"45696","REV_AT_EPOCH":"15134","EPHEMERIS_TYPE":"0","LAUNCH_DATE":"2020-06-04","REF_FRAME":"TEME"},{"MEAN_MOTION_DDOT":"0.0000000000000","MEAN_ELEMENT_THEORY":"SGP4","OBJECT_ID":"2020-035AS","DECAY_DATE":null,"TLE_LINE1":"1 45697U 20035AS  23053.22748504  .00027630  00000-0  18672-2 0  9990","ARG_OF_PERICENTER":"75.9489","INCLINATION":"53.0543","CENTER_NAME":"EARTH","PERIOD":"95.593","OBJECT_NAME":"STARLINK-1351","GP_ID":"226418852","CLASSIFICATION_TYPE":"U","SEMIMAJOR_AXIS":"6925.391","MEAN_MOTION":"15.06386311","LAUNCH_DATE":"2020-06-04","REF_FRAME":"TEME","EPHEMERIS_TYPE":"0","REV_AT_EPOCH":"15163","NORAD_CAT_ID":"45697","ECCENTRICITY":"0.00014970","BSTAR":"0.00186720000000","RA_OF_ASC_NODE":"346.1726","FILE":"3824148","APOAPSIS":"548.292","COUNTRY_CODE":"US","OBJECT_TYPE":"PAYLOAD","TIME_SYSTEM":"UTC","TLE_LINE2":"2 45697  53.0543 346.1726 0001497  75.9489 284.1666 15.06386311151638","EPOCH":"2023-02-22T05:27:34.707456","PERIAPSIS":"546.219","MEAN_ANOMALY":"284.1666","ELEMENT_SET_NO":"999","RCS_SIZE":"LARGE","SITE":"AFETR","MEAN_MOTION_DOT":"0.00027630"},{"TLE_LINE2":"2 45698  53.0532 346.2171 0001607  78.7305 281.3864 15.06388798151633","EPOCH":"2023-02-22T05:10:17.721696","TIME_SYSTEM":"UTC","ELEMENT_SET_NO":"999","SITE":"AFETR","RCS_SIZE":"LARGE","MEAN_MOTION_DOT":"0.00022393","PERIAPSIS":"546.135","MEAN_ANOMALY":"281.3864","BSTAR":"0.00151790000000","RA_OF_ASC_NODE":"346.2171","ECCENTRICITY":"0.00016070","APOAPSIS":"548.361","COUNTRY_CODE":"US","OBJECT_TYPE":"PAYLOAD","FILE":"3824148","CLASSIFICATION_TYPE":"U","GP_ID":"226418120","SEMIMAJOR_AXIS":"6925.383","MEAN_MOTION":"15.06388798","CENTER_NAME":"EARTH","OBJECT_NAME":"STARLINK-1370","PERIOD":"95.593","EPHEMERIS_TYPE":"0","REV_AT_EPOCH":"15163","NORAD_CAT_ID":"45698","REF_FRAME":"TEME","LAUNCH_DATE":"2020-06-04","DECAY_DATE":null,"MEAN_MOTION_DDOT":"0.0000000000000","MEAN_ELEMENT_THEORY":"SGP4","OBJECT_ID":"2020-035AT","INCLINATION":"53.0532","ARG_OF_PERICENTER":"78.7305","TLE_LINE1":"1 45698U 20035AT  23053.21548289  .00022393  00000-0  15179-2 0  9998"},{"NORAD_CAT_ID":"45699","REV_AT_EPOCH":"15171","EPHEMERIS_TYPE":"0","REF_FRAME":"TEME","LAUNCH_DATE":"2020-06-04","MEAN_MOTION":"15.06431187","CLASSIFICATION_TYPE":"U","GP_ID":"226471108","SEMIMAJOR_AXIS":"6925.253","CENTER_NAME":"EARTH","OBJECT_NAME":"STARLINK-1398","PERIOD":"95.590","INCLINATION":"53.0532","TLE_LINE1":"1 45699U 20035AU  23053.80248794  .00030816  00000-0  20769-2 0  9992","ARG_OF_PERICENTER":"94.0590","DECAY_DATE":null,"MEAN_ELEMENT_THEORY":"SGP4","OBJECT_ID":"2020-035AU","MEAN_MOTION_DDOT":"0.0000000000000","MEAN_MOTION_DOT":"0.00030816","SITE":"AFETR","RCS_SIZE":"LARGE","ELEMENT_SET_NO":"999","MEAN_ANOMALY":"266.0569","PERIAPSIS":"546.088","EPOCH":"2023-02-22T19:15:34.958016","TLE_LINE2":"2 45699  53.0532 343.5918 0001487  94.0590 266.0569 15.06431187151718","TIME_SYSTEM":"UTC","APOAPSIS":"548.148","OBJECT_TYPE":"PAYLOAD","COUNTRY_CODE":"US","FILE":"3825529","BSTAR":"0.00207690000000","RA_OF_ASC_NODE":"343.5918","ECCENTRICITY":"0.00014870"},{"MEAN_ANOMALY":"274.8944","PERIAPSIS":"546.293","SITE":"AFETR","RCS_SIZE":"LARGE","MEAN_MOTION_DOT":"0.00028796","ELEMENT_SET_NO":"999","TIME_SYSTEM":"UTC","EPOCH":"2023-02-22T04:50:25.979712","TLE_LINE2":"2 45700  53.0534 346.2898 0001349  85.2199 274.8944 15.06395500151626","FILE":"3824148","APOAPSIS":"548.162","OBJECT_TYPE":"PAYLOAD","COUNTRY_CODE":"US","ECCENTRICITY":"0.00013490","BSTAR":"0.00194440000000","RA_OF_ASC_NODE":"346.2898","REF_FRAME":"TEME","LAUNCH_DATE":"2020-06-04","REV_AT_EPOCH":"15162","NORAD_CAT_ID":"45700","EPHEMERIS_TYPE":"0","CENTER_NAME":"EARTH","PERIOD":"95.592","OBJECT_NAME":"STARLINK-1400","MEAN_MOTION":"15.06395500","GP_ID":"226419121","CLASSIFICATION_TYPE":"U","SEMIMAJOR_AXIS":"6925.362","ARG_OF_PERICENTER":"85.2199","TLE_LINE1":"1 45700U 20035AV  23053.20168958  .00028796  00000-0  19444-2 0  9994","INCLINATION":"53.0534","MEAN_ELEMENT_THEORY":"SGP4","OBJECT_ID":"2020-035AV","MEAN_MOTION_DDOT":"0.0000000000000","DECAY_DATE":null},{"ECCENTRICITY":"0.00015950","BSTAR":"0.00207210000000","RA_OF_ASC_NODE":"343.1697","FILE":"3825529","APOAPSIS":"548.292","COUNTRY_CODE":"US","OBJECT_TYPE":"PAYLOAD","TIME_SYSTEM":"UTC","TLE_LINE2":"2 45701  53.0534 343.1697 0001595 116.2885 243.8268 15.06408562151729","EPOCH":"2023-02-22T21:28:14.858688","PERIAPSIS":"546.083","MEAN_ANOMALY":"243.8268","ELEMENT_SET_NO":"999","SITE":"AFETR","MEAN_MOTION_DOT":"0.00030725","RCS_SIZE":"LARGE","MEAN_MOTION_DDOT":"0.0000000000000","MEAN_ELEMENT_THEORY":"SGP4","OBJECT_ID":"2020-035AW","DECAY_DATE":null,"ARG_OF_PERICENTER":"116.2885","TLE_LINE1":"1 45701U 20035AW  23053.89461642  .00030725  00000-0  20721-2 0  9991","INCLINATION":"53.0534","CENTER_NAME":"EARTH","OBJECT_NAME":"STARLINK-1403","PERIOD":"95.592","CLASSIFICATION_TYPE":"U","GP_ID":"226470132","SEMIMAJOR_AXIS":"6925.322","MEAN_MOTION":"15.06408562","REF_FRAME":"TEME","LAUNCH_DATE":"2020-06-04","EPHEMERIS_TYPE":"0","NORAD_CAT_ID":"45701","REV_AT_EPOCH":"15172"},{"ELEMENT_SET_NO":"999","SITE":"AFETR","RCS_SIZE":"LARGE","MEAN_MOTION_DOT":"0.00027689","PERIAPSIS":"546.228","MEAN_ANOMALY":"255.6547","TLE_LINE2":"2 45702  53.0536 346.2385 0001462 104.4604 255.6547 15.06391190151629","EPOCH":"2023-02-22T05:06:21.297600","TIME_SYSTEM":"UTC","APOAPSIS":"548.253","OBJECT_TYPE":"PAYLOAD","COUNTRY_CODE":"US","FILE":"3824148","BSTAR":"0.00187090000000","RA_OF_ASC_NODE":"346.2385","ECCENTRICITY":"0.00014620","EPHEMERIS_TYPE":"0","NORAD_CAT_ID":"45702","REV_AT_EPOCH":"15162","REF_FRAME":"TEME","LAUNCH_DATE":"2020-06-04","CLASSIFICATION_TYPE":"U","GP_ID":"226417621","SEMIMAJOR_AXIS":"6925.376","MEAN_MOTION":"15.06391190","CENTER_NAME":"EARTH","OBJECT_NAME":"STARLINK-1405","PERIOD":"95.593","INCLINATION":"53.0536","TLE_LINE1":"1 45702U 20035AX  23053.21274650  .00027689  00000-0  18709-2 0  9997","ARG_OF_PERICENTER":"104.4604","DECAY_DATE":null,"MEAN_MOTION_DDOT":"0.0000000000000","MEAN_ELEMENT_THEORY":"SGP4","OBJECT_ID":"2020-035AX"},{"DECAY_DATE":null,"MEAN_ELEMENT_THEORY":"SGP4","OBJECT_ID":"2020-035AY","MEAN_MOTION_DDOT":"0.0000000000000","INCLINATION":"53.0544","ARG_OF_PERICENTER":"75.1885","TLE_LINE1":"1 45703U 20035AY  23053.87250853  .00031985  00000-0  21560-2 0  9992","MEAN_MOTION":"15.06407526","GP_ID":"226471607","CLASSIFICATION_TYPE":"U","SEMIMAJOR_AXIS":"6925.325","CENTER_NAME":"EARTH","PERIOD":"95.592","OBJECT_NAME":"STARLINK-1407","NORAD_CAT_ID":"45703","REV_AT_EPOCH":"15172","EPHEMERIS_TYPE":"0","REF_FRAME":"TEME","LAUNCH_DATE":"2020-06-04","BSTAR":"0.00215600000000","RA_OF_ASC_NODE":"343.2739","ECCENTRICITY":"0.00014100","APOAPSIS":"548.167","OBJECT_TYPE":"PAYLOAD","COUNTRY_CODE":"US","FILE":"3825529","EPOCH":"2023-02-22T20:56:24.736992","TLE_LINE2":"2 45703  53.0544 343.2739 0001410  75.1885 284.9260 15.06407526151726","TIME_SYSTEM":"UTC","SITE":"AFETR","MEAN_MOTION_DOT":"0.00031985","RCS_SIZE":"LARGE","ELEMENT_SET_NO":"999","MEAN_ANOMALY":"284.9260","PERIAPSIS":"546.214"},{"MEAN_ANOMALY":"260.1873","PERIAPSIS":"545.998","RCS_SIZE":"LARGE","SITE":"AFETR","MEAN_MOTION_DOT":"0.00011832","ELEMENT_SET_NO":"999","TIME_SYSTEM":"UTC","EPOCH":"2023-02-22T21:33:32.962752","TLE_LINE2":"2 45704  53.0563  13.1574 0001681  99.9306 260.1873 15.06416708151313","FILE":"3825529","OBJECT_TYPE":"PAYLOAD","COUNTRY_CODE":"US","APOAPSIS":"548.326","ECCENTRICITY":"0.00016810","RA_OF_ASC_NODE":"13.1574","BSTAR":"0.00081151000000","LAUNCH_DATE":"2020-06-04","REF_FRAME":"TEME","NORAD_CAT_ID":"45704","REV_AT_EPOCH":"15131","EPHEMERIS_TYPE":"0","PERIOD":"95.591","OBJECT_NAME":"STARLINK-1409","CENTER_NAME":"EARTH","MEAN_MOTION":"15.06416708","SEMIMAJOR_AXIS":"6925.297","CLASSIFICATION_TYPE":"U","GP_ID":"226470383","ARG_OF_PERICENTER":"99.9306","TLE_LINE1":"1 45704U 20035AZ  23053.89829818  .00011832  00000-0  81151-3 0  9990","INCLINATION":"53.0563","OBJECT_ID":"2020-035AZ","MEAN_ELEMENT_THEORY":"SGP4","MEAN_MOTION_DDOT":"0.0000000000000","DECAY_DATE":null}];
